CCSDS_OMM_VERS = 2.0
CREATION_DATE  = 
ORIGINATOR     = 

OBJECT_NAME    = TJS-23
OBJECT_ID      = 2025-306A
CENTER_NAME    = EARTH
REF_FRAME      = TEME
TIME_SYSTEM    = UTC
MEAN_ELEMENT_THEORY = SGP/SGP4

EPOCH          = 2026-01-17T00:26:21.005088
MEAN_MOTION    = 1.00270700
ECCENTRICITY   = .00007955
INCLINATION    = 5.9313
RA_OF_ASC_NODE = 298.2657
ARG_OF_PERICENTER = 69.8322
MEAN_ANOMALY   = 290.4117

EPHEMERIS_TYPE = 0
CLASSIFICATION_TYPE = U
NORAD_CAT_ID   = 67226
ELEMENT_SET_NO = 999
REV_AT_EPOCH   = 37
BSTAR          = 0
MEAN_MOTION_DOT = .42E-6
MEAN_MOTION_DDOT = 0

CCSDS_OMM_VERS = 2.0
CREATION_DATE  = 
ORIGINATOR     = 

OBJECT_NAME    = CZ-5 R/B
OBJECT_ID      = 2025-306B
CENTER_NAME    = EARTH
REF_FRAME      = TEME
TIME_SYSTEM    = UTC
MEAN_ELEMENT_THEORY = SGP/SGP4

EPOCH          = 2026-01-16T17:37:00.743232
MEAN_MOTION    = 1.92563067
ECCENTRICITY   = .75777454
INCLINATION    = 16.2590
RA_OF_ASC_NODE = 290.0061
ARG_OF_PERICENTER = 195.7219
MEAN_ANOMALY   = 111.0043

EPHEMERIS_TYPE = 0
CLASSIFICATION_TYPE = U
NORAD_CAT_ID   = 67227
ELEMENT_SET_NO = 999
REV_AT_EPOCH   = 54
BSTAR          = .23017527E-2
MEAN_MOTION_DOT = .8562E-4
MEAN_MOTION_DDOT = 0

CCSDS_OMM_VERS = 2.0
CREATION_DATE  = 
ORIGINATOR     = 

OBJECT_NAME    = QPS-SAR-15
OBJECT_ID      = 2025-307A
CENTER_NAME    = EARTH
REF_FRAME      = TEME
TIME_SYSTEM    = UTC
MEAN_ELEMENT_THEORY = SGP/SGP4

EPOCH          = 2026-01-17T13:58:44.207040
MEAN_MOTION    = 14.97388906
ECCENTRICITY   = .00076796
INCLINATION    = 42.0085
RA_OF_ASC_NODE = 334.0448
ARG_OF_PERICENTER = 89.0597
MEAN_ANOMALY   = 271.1108

EPHEMERIS_TYPE = 0
CLASSIFICATION_TYPE = U
NORAD_CAT_ID   = 67228
ELEMENT_SET_NO = 999
REV_AT_EPOCH   = 409
BSTAR          = .39038194E-3
MEAN_MOTION_DOT = .4436E-4
MEAN_MOTION_DDOT = 0

CCSDS_OMM_VERS = 2.0
CREATION_DATE  = 
ORIGINATOR     = 

OBJECT_NAME    = ELECTRON R/B
OBJECT_ID      = 2025-307B
CENTER_NAME    = EARTH
REF_FRAME      = TEME
TIME_SYSTEM    = UTC
MEAN_ELEMENT_THEORY = SGP/SGP4

EPOCH          = 2026-01-17T12:40:11.025696
MEAN_MOTION    = 15.92760716
ECCENTRICITY   = .01227825
INCLINATION    = 41.9911
RA_OF_ASC_NODE = 316.7755
ARG_OF_PERICENTER = 78.9326
MEAN_ANOMALY   = 282.5313

EPHEMERIS_TYPE = 0
CLASSIFICATION_TYPE = U
NORAD_CAT_ID   = 67229
ELEMENT_SET_NO = 999
REV_AT_EPOCH   = 428
BSTAR          = .16307666E-2
MEAN_MOTION_DOT = .1244265E-1
MEAN_MOTION_DDOT = .7874426E-5

CCSDS_OMM_VERS = 2.0
CREATION_DATE  = 
ORIGINATOR     = 

OBJECT_NAME    = SPACEMOBILE-006
OBJECT_ID      = 2025-309A
CENTER_NAME    = EARTH
REF_FRAME      = TEME
TIME_SYSTEM    = UTC
MEAN_ELEMENT_THEORY = SGP/SGP4

EPOCH          = 2026-01-16T11:53:13.186464
MEAN_MOTION    = 15.17742607
ECCENTRICITY   = .00121213
INCLINATION    = 52.9984
RA_OF_ASC_NODE = 305.9975
ARG_OF_PERICENTER = 33.3140
MEAN_ANOMALY   = 326.8614

EPHEMERIS_TYPE = 0
CLASSIFICATION_TYPE = U
NORAD_CAT_ID   = 67232
ELEMENT_SET_NO = 999
REV_AT_EPOCH   = 355
BSTAR          = -.919635E-5
MEAN_MOTION_DOT = -.509E-5
MEAN_MOTION_DDOT = 0

CCSDS_OMM_VERS = 2.0
CREATION_DATE  = 
ORIGINATOR     = 

OBJECT_NAME    = LVM3 R/B
OBJECT_ID      = 2025-309B
CENTER_NAME    = EARTH
REF_FRAME      = TEME
TIME_SYSTEM    = UTC
MEAN_ELEMENT_THEORY = SGP/SGP4

EPOCH          = 2026-01-17T15:37:51.255552
MEAN_MOTION    = 15.19712395
ECCENTRICITY   = .00119682
INCLINATION    = 52.9295
RA_OF_ASC_NODE = 300.1374
ARG_OF_PERICENTER = 61.3225
MEAN_ANOMALY   = 298.8970

EPHEMERIS_TYPE = 0
CLASSIFICATION_TYPE = U
NORAD_CAT_ID   = 67233
ELEMENT_SET_NO = 999
REV_AT_EPOCH   = 373
BSTAR          = .35701776E-3
MEAN_MOTION_DOT = .7417E-4
MEAN_MOTION_DDOT = 0

CCSDS_OMM_VERS = 2.0
CREATION_DATE  = 
ORIGINATOR     = 

OBJECT_NAME    = 2025-310A
OBJECT_ID      = 2025-310A
CENTER_NAME    = EARTH
REF_FRAME      = TEME
TIME_SYSTEM    = UTC
MEAN_ELEMENT_THEORY = SGP/SGP4

EPOCH          = 2026-01-17T15:19:23.376000
MEAN_MOTION    = 14.75704208
ECCENTRICITY   = .00021295
INCLINATION    = 97.9661
RA_OF_ASC_NODE = 27.1079
ARG_OF_PERICENTER = 171.0726
MEAN_ANOMALY   = 189.0522

EPHEMERIS_TYPE = 0
CLASSIFICATION_TYPE = U
NORAD_CAT_ID   = 67234
ELEMENT_SET_NO = 999
REV_AT_EPOCH   = 342
BSTAR          = .11148882E-4
MEAN_MOTION_DOT = .26E-6
MEAN_MOTION_DDOT = 0

CCSDS_OMM_VERS = 2.0
CREATION_DATE  = 
ORIGINATOR     = 

OBJECT_NAME    = SL-4 R/B
OBJECT_ID      = 2025-310B
CENTER_NAME    = EARTH
REF_FRAME      = TEME
TIME_SYSTEM    = UTC
MEAN_ELEMENT_THEORY = SGP/SGP4

EPOCH          = 2026-01-17T15:13:56.497152
MEAN_MOTION    = 15.60885906
ECCENTRICITY   = .02599524
INCLINATION    = 97.9616
RA_OF_ASC_NODE = 29.7443
ARG_OF_PERICENTER = 353.0296
MEAN_ANOMALY   = 6.7368

EPHEMERIS_TYPE = 0
CLASSIFICATION_TYPE = U
NORAD_CAT_ID   = 67235
ELEMENT_SET_NO = 999
REV_AT_EPOCH   = 358
BSTAR          = .58848405E-3
MEAN_MOTION_DOT = .298558E-2
MEAN_MOTION_DDOT = .2457305E-5

CCSDS_OMM_VERS = 2.0
CREATION_DATE  = 
ORIGINATOR     = 

OBJECT_NAME    = HULIANWANG DIGUI-128
OBJECT_ID      = 2025-311A
CENTER_NAME    = EARTH
REF_FRAME      = TEME
TIME_SYSTEM    = UTC
MEAN_ELEMENT_THEORY = SGP/SGP4

EPOCH          = 2026-01-16T06:45:21.494592
MEAN_MOTION    = 13.90068530
ECCENTRICITY   = .0006434
INCLINATION    = 50.0101
RA_OF_ASC_NODE = 310.8580
ARG_OF_PERICENTER = 349.0643
MEAN_ANOMALY   = 11.0115

EPHEMERIS_TYPE = 0
CLASSIFICATION_TYPE = U
NORAD_CAT_ID   = 67236
ELEMENT_SET_NO = 999
REV_AT_EPOCH   = 297
BSTAR          = .96242198E-4
MEAN_MOTION_DOT = -.27E-6
MEAN_MOTION_DDOT = 0

CCSDS_OMM_VERS = 2.0
CREATION_DATE  = 
ORIGINATOR     = 

OBJECT_NAME    = HULIANWANG DIGUI-129
OBJECT_ID      = 2025-311B
CENTER_NAME    = EARTH
REF_FRAME      = TEME
TIME_SYSTEM    = UTC
MEAN_ELEMENT_THEORY = SGP/SGP4

EPOCH          = 2026-01-15T23:53:10.981536
MEAN_MOTION    = 13.89920306
ECCENTRICITY   = .00077601
INCLINATION    = 50.0092
RA_OF_ASC_NODE = 312.0061
ARG_OF_PERICENTER = 351.1162
MEAN_ANOMALY   = 8.9598

EPHEMERIS_TYPE = 0
CLASSIFICATION_TYPE = U
NORAD_CAT_ID   = 67237
ELEMENT_SET_NO = 999
REV_AT_EPOCH   = 293
BSTAR          = .88083719E-4
MEAN_MOTION_DOT = -.37E-6
MEAN_MOTION_DDOT = 0

CCSDS_OMM_VERS = 2.0
CREATION_DATE  = 
ORIGINATOR     = 

OBJECT_NAME    = HULIANWANG DIGUI-130
OBJECT_ID      = 2025-311C
CENTER_NAME    = EARTH
REF_FRAME      = TEME
TIME_SYSTEM    = UTC
MEAN_ELEMENT_THEORY = SGP/SGP4

EPOCH          = 2026-01-15T18:52:08.977728
MEAN_MOTION    = 13.89701602
ECCENTRICITY   = .00102963
INCLINATION    = 50.0157
RA_OF_ASC_NODE = 312.9050
ARG_OF_PERICENTER = 328.2782
MEAN_ANOMALY   = 31.7495

EPHEMERIS_TYPE = 0
CLASSIFICATION_TYPE = U
NORAD_CAT_ID   = 67238
ELEMENT_SET_NO = 999
REV_AT_EPOCH   = 290
BSTAR          = .9771564E-4
MEAN_MOTION_DOT = -.25E-6
MEAN_MOTION_DDOT = 0

CCSDS_OMM_VERS = 2.0
CREATION_DATE  = 
ORIGINATOR     = 

OBJECT_NAME    = HULIANWANG DIGUI-131
OBJECT_ID      = 2025-311D
CENTER_NAME    = EARTH
REF_FRAME      = TEME
TIME_SYSTEM    = UTC
MEAN_ELEMENT_THEORY = SGP/SGP4

EPOCH          = 2026-01-15T18:56:38.163840
MEAN_MOTION    = 13.89687222
ECCENTRICITY   = .00124533
INCLINATION    = 50.0123
RA_OF_ASC_NODE = 312.9195
ARG_OF_PERICENTER = 336.2899
MEAN_ANOMALY   = 23.7424

EPHEMERIS_TYPE = 0
CLASSIFICATION_TYPE = U
NORAD_CAT_ID   = 67239
ELEMENT_SET_NO = 999
REV_AT_EPOCH   = 290
BSTAR          = .93500468E-4
MEAN_MOTION_DOT = -.31E-6
MEAN_MOTION_DDOT = 0

