TJS-23                  
1 67226U 25306A   26017.01829867  .00000042  00000+0  00000+0 0  9990
2 67226   5.9313 298.2657 0000795  69.8322 290.4117  1.00270700   377
CZ-5 R/B                
1 67227U 25306B   26016.73403638  .00008562  00000+0  23018-2 0  9995
2 67227  16.2590 290.0061 7577745 195.7219 111.0043  1.92563067   541
QPS-SAR-15              
1 67228U 25307A   26017.58245610  .00004436  00000+0  39038-3 0  9991
2 67228  42.0085 334.0448 0007679  89.0597 271.1108 14.97388906  4097
ELECTRON R/B            
1 67229U 25307B   26017.52790539  .01244265  78744-5  16308-2 0  9998
2 67229  41.9911 316.7755 0122782  78.9326 282.5313 15.92760716  4286
SPACEMOBILE-006         
1 67232U 25309A   26016.49529151 -.00000509  00000+0 -91964-5 0  9999
2 67232  52.9984 305.9975 0012121  33.3140 326.8614 15.17742607  3551
LVM3 R/B                
1 67233U 25309B   26017.65128768  .00007417  00000+0  35702-3 0  9997
2 67233  52.9295 300.1374 0011968  61.3225 298.8970 15.19712395  3736
2025-310A               
1 67234U 25310A   26017.63846500  .00000026  00000+0  11149-4 0  9998
2 67234  97.9661  27.1079 0002129 171.0726 189.0522 14.75704208  3420
SL-4 R/B                
1 67235U 25310B   26017.63468168  .00298558  24573-5  58848-3 0  9991
2 67235  97.9616  29.7443 0259952 353.0296   6.7368 15.60885906  3586
HULIANWANG DIGUI-128    
1 67236U 25311A   26016.28149878 -.00000027  00000+0  96242-4 0  9994
2 67236  50.0101 310.8580 0006434 349.0643  11.0115 13.90068530  2976
HULIANWANG DIGUI-129    
1 67237U 25311B   26015.99526599 -.00000037  00000+0  88084-4 0  9997
2 67237  50.0092 312.0061 0007760 351.1162   8.9598 13.89920306  2939
HULIANWANG DIGUI-130    
1 67238U 25311C   26015.78621502 -.00000025  00000+0  97716-4 0  9994
2 67238  50.0157 312.9050 0010296 328.2782  31.7495 13.89701602  2903
HULIANWANG DIGUI-131    
1 67239U 25311D   26015.78933060 -.00000031  00000+0  93500-4 0  9994
2 67239  50.0123 312.9195 0012453 336.2899  23.7424 13.89687222  2906
